CCSDS_OMM_VERS = 2.0
CREATION_DATE  = 
ORIGINATOR     = 

OBJECT_NAME    = STARLINK-36580
OBJECT_ID      = 2026-014Q
CENTER_NAME    = EARTH
REF_FRAME      = TEME
TIME_SYSTEM    = UTC
MEAN_ELEMENT_THEORY = SGP/SGP4

EPOCH          = 2026-02-10T15:09:05.914080
MEAN_MOTION    = 15.79987933
ECCENTRICITY   = .0000687
INCLINATION    = 97.2843
RA_OF_ASC_NODE = 285.2221
ARG_OF_PERICENTER = 76.7433
MEAN_ANOMALY   = 283.3912

EPHEMERIS_TYPE = 0
CLASSIFICATION_TYPE = U
NORAD_CAT_ID   = 67546
ELEMENT_SET_NO = 999
REV_AT_EPOCH   = 431
BSTAR          = -.35876674E-2
MEAN_MOTION_DOT = -.616966E-2
MEAN_MOTION_DDOT = 0

CCSDS_OMM_VERS = 2.0
CREATION_DATE  = 
ORIGINATOR     = 

OBJECT_NAME    = STARLINK-36584
OBJECT_ID      = 2026-014R
CENTER_NAME    = EARTH
REF_FRAME      = TEME
TIME_SYSTEM    = UTC
MEAN_ELEMENT_THEORY = SGP/SGP4

EPOCH          = 2026-02-10T15:07:31.475424
MEAN_MOTION    = 15.80884470
ECCENTRICITY   = .00011154
INCLINATION    = 97.2751
RA_OF_ASC_NODE = 285.2183
ARG_OF_PERICENTER = 41.2696
MEAN_ANOMALY   = 318.8656

EPHEMERIS_TYPE = 0
CLASSIFICATION_TYPE = U
NORAD_CAT_ID   = 67547
ELEMENT_SET_NO = 999
REV_AT_EPOCH   = 431
BSTAR          = .10969228E-2
MEAN_MOTION_DOT = .215926E-2
MEAN_MOTION_DDOT = 0

CCSDS_OMM_VERS = 2.0
CREATION_DATE  = 
ORIGINATOR     = 

OBJECT_NAME    = STARLINK-36586
OBJECT_ID      = 2026-014S
CENTER_NAME    = EARTH
REF_FRAME      = TEME
TIME_SYSTEM    = UTC
MEAN_ELEMENT_THEORY = SGP/SGP4

EPOCH          = 2026-02-10T13:34:23.978784
MEAN_MOTION    = 15.80879860
ECCENTRICITY   = .0001393
INCLINATION    = 97.2845
RA_OF_ASC_NODE = 285.1610
ARG_OF_PERICENTER = 94.5190
MEAN_ANOMALY   = 265.6237

EPHEMERIS_TYPE = 0
CLASSIFICATION_TYPE = U
NORAD_CAT_ID   = 67548
ELEMENT_SET_NO = 999
REV_AT_EPOCH   = 430
BSTAR          = .91388486E-3
MEAN_MOTION_DOT = .179071E-2
MEAN_MOTION_DDOT = 0

CCSDS_OMM_VERS = 2.0
CREATION_DATE  = 
ORIGINATOR     = 

OBJECT_NAME    = STARLINK-36564
OBJECT_ID      = 2026-014T
CENTER_NAME    = EARTH
REF_FRAME      = TEME
TIME_SYSTEM    = UTC
MEAN_ELEMENT_THEORY = SGP/SGP4

EPOCH          = 2026-02-10T14:00:03.000384
MEAN_MOTION    = 15.75170695
ECCENTRICITY   = .00015281
INCLINATION    = 97.2846
RA_OF_ASC_NODE = 285.1588
ARG_OF_PERICENTER = 71.4652
MEAN_ANOMALY   = 338.7907

EPHEMERIS_TYPE = 0
CLASSIFICATION_TYPE = U
NORAD_CAT_ID   = 67549
ELEMENT_SET_NO = 999
REV_AT_EPOCH   = 427
BSTAR          = .92684894E-4
MEAN_MOTION_DOT = .13706E-3
MEAN_MOTION_DDOT = 0

CCSDS_OMM_VERS = 2.0
CREATION_DATE  = 
ORIGINATOR     = 

OBJECT_NAME    = STARLINK-36563
OBJECT_ID      = 2026-014U
CENTER_NAME    = EARTH
REF_FRAME      = TEME
TIME_SYSTEM    = UTC
MEAN_ELEMENT_THEORY = SGP/SGP4

EPOCH          = 2026-02-10T14:00:03.000384
MEAN_MOTION    = 15.75130335
ECCENTRICITY   = .00015536
INCLINATION    = 97.2870
RA_OF_ASC_NODE = 285.1678
ARG_OF_PERICENTER = 103.0578
MEAN_ANOMALY   = 331.2115

EPHEMERIS_TYPE = 0
CLASSIFICATION_TYPE = U
NORAD_CAT_ID   = 67550
ELEMENT_SET_NO = 999
REV_AT_EPOCH   = 433
BSTAR          = .59283474E-3
MEAN_MOTION_DOT = .88993E-3
MEAN_MOTION_DDOT = 0

CCSDS_OMM_VERS = 2.0
CREATION_DATE  = 
ORIGINATOR     = 

OBJECT_NAME    = STARLINK-36566
OBJECT_ID      = 2026-014V
CENTER_NAME    = EARTH
REF_FRAME      = TEME
TIME_SYSTEM    = UTC
MEAN_ELEMENT_THEORY = SGP/SGP4

EPOCH          = 2026-02-10T14:00:03.000384
MEAN_MOTION    = 15.75098507
ECCENTRICITY   = .0001468
INCLINATION    = 97.2846
RA_OF_ASC_NODE = 285.1745
ARG_OF_PERICENTER = 95.2951
MEAN_ANOMALY   = 350.9696

EPHEMERIS_TYPE = 0
CLASSIFICATION_TYPE = U
NORAD_CAT_ID   = 67551
ELEMENT_SET_NO = 999
REV_AT_EPOCH   = 433
BSTAR          = .121887E-2
MEAN_MOTION_DOT = .184931E-2
MEAN_MOTION_DDOT = 0

CCSDS_OMM_VERS = 2.0
CREATION_DATE  = 
ORIGINATOR     = 

OBJECT_NAME    = STARLINK-36567
OBJECT_ID      = 2026-014W
CENTER_NAME    = EARTH
REF_FRAME      = TEME
TIME_SYSTEM    = UTC
MEAN_ELEMENT_THEORY = SGP/SGP4

EPOCH          = 2026-02-10T13:50:21.696864
MEAN_MOTION    = 15.75264756
ECCENTRICITY   = .00018817
INCLINATION    = 97.2847
RA_OF_ASC_NODE = 285.1404
ARG_OF_PERICENTER = 100.3686
MEAN_ANOMALY   = 259.7791

EPHEMERIS_TYPE = 0
CLASSIFICATION_TYPE = U
NORAD_CAT_ID   = 67552
ELEMENT_SET_NO = 999
REV_AT_EPOCH   = 429
BSTAR          = .13435306E-2
MEAN_MOTION_DOT = .205838E-2
MEAN_MOTION_DDOT = 0

CCSDS_OMM_VERS = 2.0
CREATION_DATE  = 
ORIGINATOR     = 

OBJECT_NAME    = STARLINK-36569
OBJECT_ID      = 2026-014X
CENTER_NAME    = EARTH
REF_FRAME      = TEME
TIME_SYSTEM    = UTC
MEAN_ELEMENT_THEORY = SGP/SGP4

EPOCH          = 2026-02-10T14:56:52.933632
MEAN_MOTION    = 15.80870099
ECCENTRICITY   = .00015157
INCLINATION    = 97.2745
RA_OF_ASC_NODE = 285.2268
ARG_OF_PERICENTER = 34.1454
MEAN_ANOMALY   = 325.9911

EPHEMERIS_TYPE = 0
CLASSIFICATION_TYPE = U
NORAD_CAT_ID   = 67553
ELEMENT_SET_NO = 999
REV_AT_EPOCH   = 430
BSTAR          = .89290272E-3
MEAN_MOTION_DOT = .174792E-2
MEAN_MOTION_DDOT = 0

CCSDS_OMM_VERS = 2.0
CREATION_DATE  = 
ORIGINATOR     = 

OBJECT_NAME    = STARLINK-36395
OBJECT_ID      = 2026-014Y
CENTER_NAME    = EARTH
REF_FRAME      = TEME
TIME_SYSTEM    = UTC
MEAN_ELEMENT_THEORY = SGP/SGP4

EPOCH          = 2026-02-10T13:42:14.049216
MEAN_MOTION    = 15.75228745
ECCENTRICITY   = .00014948
INCLINATION    = 97.2852
RA_OF_ASC_NODE = 285.1490
ARG_OF_PERICENTER = 85.0710
MEAN_ANOMALY   = 275.0726

EPHEMERIS_TYPE = 0
CLASSIFICATION_TYPE = U
NORAD_CAT_ID   = 67554
ELEMENT_SET_NO = 999
REV_AT_EPOCH   = 429
BSTAR          = .94720952E-3
MEAN_MOTION_DOT = .143797E-2
MEAN_MOTION_DDOT = 0

CCSDS_OMM_VERS = 2.0
CREATION_DATE  = 
ORIGINATOR     = 

OBJECT_NAME    = STARLINK-36559
OBJECT_ID      = 2026-014Z
CENTER_NAME    = EARTH
REF_FRAME      = TEME
TIME_SYSTEM    = UTC
MEAN_ELEMENT_THEORY = SGP/SGP4

EPOCH          = 2026-02-10T13:44:15.937152
MEAN_MOTION    = 15.75226655
ECCENTRICITY   = .0001632
INCLINATION    = 97.2851
RA_OF_ASC_NODE = 285.1470
ARG_OF_PERICENTER = 79.9682
MEAN_ANOMALY   = 280.1767

EPHEMERIS_TYPE = 0
CLASSIFICATION_TYPE = U
NORAD_CAT_ID   = 67555
ELEMENT_SET_NO = 999
REV_AT_EPOCH   = 429
BSTAR          = .82813226E-3
MEAN_MOTION_DOT = .125421E-2
MEAN_MOTION_DDOT = 0

CCSDS_OMM_VERS = 2.0
CREATION_DATE  = 
ORIGINATOR     = 

OBJECT_NAME    = MR-1
OBJECT_ID      = 2026-015A
CENTER_NAME    = EARTH
REF_FRAME      = TEME
TIME_SYSTEM    = UTC
MEAN_ELEMENT_THEORY = SGP/SGP4

EPOCH          = 2026-02-10T15:20:36.175776
MEAN_MOTION    = 13.52685961
ECCENTRICITY   = .0005137
INCLINATION    = 88.9977
RA_OF_ASC_NODE = 281.4123
ARG_OF_PERICENTER = 86.8803
MEAN_ANOMALY   = 273.2937

EPHEMERIS_TYPE = 0
CLASSIFICATION_TYPE = U
NORAD_CAT_ID   = 67556
ELEMENT_SET_NO = 999
REV_AT_EPOCH   = 260
BSTAR          = -.2654234E-5
MEAN_MOTION_DOT = .1E-6
MEAN_MOTION_DDOT = 0

CCSDS_OMM_VERS = 2.0
CREATION_DATE  = 
ORIGINATOR     = 

OBJECT_NAME    = MR-2
OBJECT_ID      = 2026-015B
CENTER_NAME    = EARTH
REF_FRAME      = TEME
TIME_SYSTEM    = UTC
MEAN_ELEMENT_THEORY = SGP/SGP4

EPOCH          = 2026-02-10T15:21:06.332832
MEAN_MOTION    = 13.52660969
ECCENTRICITY   = .0005183
INCLINATION    = 88.9975
RA_OF_ASC_NODE = 281.4123
ARG_OF_PERICENTER = 86.0601
MEAN_ANOMALY   = 274.1144

EPHEMERIS_TYPE = 0
CLASSIFICATION_TYPE = U
NORAD_CAT_ID   = 67557
ELEMENT_SET_NO = 999
REV_AT_EPOCH   = 260
BSTAR          = .11237317E-4
MEAN_MOTION_DOT = .2E-6
MEAN_MOTION_DDOT = 0

