STARLINK-36580          
1 67546U 26014Q   26041.63131845 -.00616966  00000+0 -35877-2 0  9992
2 67546  97.2843 285.2221 0000687  76.7433 283.3912 15.79987933  4313
STARLINK-36584          
1 67547U 26014R   26041.63022541  .00215926  00000+0  10969-2 0  9999
2 67547  97.2751 285.2183 0001115  41.2696 318.8656 15.80884470  4317
STARLINK-36586          
1 67548U 26014S   26041.56555531  .00179071  00000+0  91388-3 0  9997
2 67548  97.2845 285.1610 0001393  94.5190 265.6237 15.80879860  4304
STARLINK-36564          
1 67549U 26014T   26041.58336806  .00013706  00000+0  92685-4 0  9996
2 67549  97.2846 285.1588 0001528  71.4652 338.7907 15.75170695  4273
STARLINK-36563          
1 67550U 26014U   26041.58336806  .00088993  00000+0  59283-3 0  9994
2 67550  97.2870 285.1678 0001553 103.0578 331.2115 15.75130335  4332
STARLINK-36566          
1 67551U 26014V   26041.58336806  .00184931  00000+0  12189-2 0  9997
2 67551  97.2846 285.1745 0001468  95.2951 350.9696 15.75098507  4339
STARLINK-36567          
1 67552U 26014W   26041.57664001  .00205838  00000+0  13435-2 0  9993
2 67552  97.2847 285.1404 0001881 100.3686 259.7791 15.75264756  4293
STARLINK-36569          
1 67553U 26014X   26041.62283488  .00174792  00000+0  89290-3 0  9993
2 67553  97.2745 285.2268 0001515  34.1454 325.9911 15.80870099  4302
STARLINK-36395          
1 67554U 26014Y   26041.57099594  .00143797  00000+0  94721-3 0  9997
2 67554  97.2852 285.1490 0001494  85.0710 275.0726 15.75228745  4290
STARLINK-36559          
1 67555U 26014Z   26041.57240668  .00125421  00000+0  82813-3 0  9991
2 67555  97.2851 285.1470 0001632  79.9682 280.1767 15.75226655  4292
MR-1                    
1 67556U 26015A   26041.63930759  .00000010  00000+0 -26542-5 0  9993
2 67556  88.9977 281.4123 0005137  86.8803 273.2937 13.52685961  2606
MR-2                    
1 67557U 26015B   26041.63965663  .00000020  00000+0  11237-4 0  9990
2 67557  88.9975 281.4123 0005183  86.0601 274.1144 13.52660969  2605
